QIANFAN-81              
1 63167U 25046J   25290.20065628  .00000199  00000+0  28942-3 0  9993
2 63167  88.9790 325.7257 0012615 285.8039  74.1721 13.50987156 39859
QIANFAN-82              
1 63168U 25046K   25290.15977215  .00000163  00000+0  23464-3 0  9997
2 63168  88.9792 325.7736 0010828 295.6438  64.3594 13.50969465 39830
QIANFAN-83              
1 63169U 25046L   25290.20250343  .00000195  00000+0  23772-3 0  9997
2 63169  88.9792 325.6565 0011969 281.5294  78.4519 13.61963953 39900
QIANFAN-84              
1 63170U 25046M   25290.18809821  .00000118  00000+0  16392-3 0  9992
2 63170  88.9792 325.9036 0013750 290.6967  69.2710 13.50986724 39760
QIANFAN-85              
1 63171U 25046N   25290.18446228  .00000175  00000+0  25315-3 0  9999
2 63171  88.9791 325.7760 0011154 294.1786  65.8199 13.50972456 39834
QIANFAN-86              
1 63172U 25046P   25290.19271433  .00000180  00000+0  26116-3 0  9991
2 63172  88.9792 325.6358 0009104 300.0820  59.9428 13.50969423 39914
QIANFAN-87              
1 63173U 25046Q   25282.68330257  .00000145  00000+0  20656-3 0  9991
2 63173  88.9804 326.5243 0010016 319.1660  40.8739 13.50979787 38837
QIANFAN-88              
1 63174U 25046R   25283.51451471  .00000149  00000+0  21299-3 0  9995
2 63174  88.9800 326.3915 0010557 325.4993  34.5472 13.50973338 38972
